NORAD_CAT_ID,OBJECT_NAME,OBJECT_TYPE,EPOCH,MEAN_MOTION,ECCENTRICITY,INCLINATION,RA_OF_ASC_NODE,ARG_OF_PERICENTER,MEAN_ANOMALY,BSTAR,MEAN_MOTION_DOT,MEAN_MOTION_DDOT,TLE_LINE0,TLE_LINE1,TLE_LINE2,SEMIMAJOR_AXIS,PERIOD,APOGEE,PERIGEE,DECAYED
54799.0,STARLINK-5421,PAYLOAD,2023-11-24 21:24:23,15.08856187,0.0001286,53.2156,171.1253,88.5025,271.6114,-0.00010112,-1.898e-05,0.0,0 STARLINK-5421,1 54799U 22175AT  23328.89193488 -.00001898  00000-0 -10112-3 0  9995,2 54799  53.2156 171.1253 0001286  88.5025 271.6114 15.08856187 54092,6917.831,95.437,540.586,538.806,0.0
54799.0,STARLINK-5421,PAYLOAD,2023-11-24 22:59:46,15.08845174,0.0001361,53.2155,170.8288,88.5843,271.5305,8.4916e-05,1.064e-05,0.0,0 STARLINK-5421,1 54799U 22175AT  23328.95817745  .00001064  00000-0  84916-4 0  9998,2 54799  53.2155 170.8288 0001361  88.5843 271.5305 15.08845174 54104,6917.865,95.437,540.671,538.788,0.0
54799.0,STARLINK-5421,PAYLOAD,2023-11-25 19:39:47,15.08845262,0.0001337,53.2153,166.9622,93.9666,266.1479,0.00022706,3.328e-05,0.0,0 STARLINK-5421,1 54799U 22175AT  23329.81929561  .00003328  00000-0  22706-3 0  9997,2 54799  53.2153 166.9622 0001337  93.9666 266.1479 15.08845262 54230,6917.864,95.437,540.654,538.804,0.0
54799.0,STARLINK-5421,PAYLOAD,2023-11-26 13:09:01,15.08845344,0.0001198,53.2148,163.6928,80.6152,279.4975,9.1823e-05,1.174e-05,0.0,0 STARLINK-5421,1 54799U 22175AT  23330.54793782  .00001174  00000-0  91823-4 0  9997,2 54799  53.2148 163.6928 0001198  80.6152 279.4975 15.08845344 54346,6917.864,95.437,540.558,538.9,0.0
54799.0,STARLINK-5421,PAYLOAD,2023-11-26 19:30:32,15.08873763,0.0001278,53.2176,162.4998,120.7583,239.3535,0.00024446,3.608e-05,0.0,0 STARLINK-5421,1 54799U 22175AT  23330.81287284  .00003608  00000-0  24446-3 0  9992,2 54799  53.2176 162.4998 0001278 120.7583 239.3535 15.08873763 52222,6917.777,95.435,540.526,538.758,0.0
54799.0,STARLINK-5421,PAYLOAD,2023-11-27 19:21:21,15.08842657,0.0001316,53.2164,158.0395,88.082,272.0322,-5.0514e-05,-1.092e-05,0.0,0 STARLINK-5421,1 54799U 22175AT  23331.80650113 -.00001092  00000-0 -50514-4 0  9990,2 54799  53.2164 158.0395 0001316  88.0820 272.0322 15.08842657 52376,6917.872,95.437,540.648,538.827,0.0
54799.0,STARLINK-5421,PAYLOAD,2023-11-28 12:50:36,15.08840136,0.0001243,53.2158,154.7696,101.9561,258.1571,7.5323e-05,9.11e-06,0.0,0 STARLINK-5421,1 54799U 22175AT  23332.53513948  .00000911  00000-0  75323-4 0  9997,2 54799  53.2158 154.7696 0001243 101.9561 258.1571 15.08840136 54645,6917.88,95.438,540.605,538.885,0.0
54799.0,STARLINK-5421,PAYLOAD,2023-11-28 19:12:08,15.08840115,0.0001108,53.2167,153.5804,101.0268,259.0849,0.00016604,2.356e-05,0.0,0 STARLINK-5421,1 54799U 22175AT  23332.80009636  .00002356  00000-0  16604-3 0  9992,2 54799  53.2167 153.5804 0001108 101.0268 259.0849 15.08840115 54687,6917.88,95.438,540.512,538.979,0.0
54799.0,STARLINK-5421,PAYLOAD,2023-11-29 11:06:00,15.08833321,0.0001242,53.217,150.6081,90.5165,269.5969,0.00014705,2.053e-05,0.0,0 STARLINK-5421,1 54799U 22175AT  23333.46250345  .00002053  00000-0  14705-3 0  9994,2 54799  53.2170 150.6081 0001242  90.5165 269.5969 15.08833321 52625,6917.901,95.438,540.625,538.907,0.0
54799.0,STARLINK-5421,PAYLOAD,2023-11-29 19:02:57,15.08787646,0.0001309,53.2169,149.1206,110.9911,249.1221,0.00073234,0.0001137,0.0,0 STARLINK-5421,1 54799U 22175AT  23333.79371796  .00011370  00000-0  73234-3 0  9998,2 54799  53.2169 149.1206 0001309 110.9911 249.1221 15.08787646 52673,6918.04,95.441,540.811,539.0,0.0
54799.0,STARLINK-5421,PAYLOAD,2023-11-30 10:56:47,15.08831144,0.0001303,53.2173,146.147,104.3773,255.7364,0.00012105,1.639e-05,0.0,0 STARLINK-5421,1 54799U 22175AT  23334.45611007  .00001639  00000-0  12105-3 0  9991,2 54799  53.2173 146.1470 0001303 104.3773 255.7364 15.08831144 52770,6917.907,95.438,540.674,538.871,0.0
54799.0,STARLINK-5421,PAYLOAD,2023-11-30 18:53:43,15.08840206,0.0001293,53.2171,144.6603,99.0046,261.1093,4.2181e-05,3.83e-06,0.0,0 STARLINK-5421,1 54799U 22175AT  23334.78730588  .00000383  00000-0  42181-4 0  9996,2 54799  53.2171 144.6603 0001293  99.0046 261.1093 15.08840206 52825,6917.88,95.438,540.639,538.85,0.0
54799.0,STARLINK-5421,PAYLOAD,2023-12-01 18:44:29,15.08846227,0.0001296,53.2172,140.1999,85.4153,274.6987,0.00016682,2.368e-05,0.0,0 STARLINK-5421,1 54799U 22175AT  23335.78089984  .00002368  00000-0  16682-3 0  9995,2 54799  53.2172 140.1999 0001296  85.4153 274.6987 15.08846227 55133,6917.861,95.437,540.623,538.83,0.0
54799.0,STARLINK-5421,PAYLOAD,2023-12-02 18:35:16,15.08847825,0.0001574,53.2175,135.7393,66.9307,293.1851,0.00012333,1.676e-05,0.0,0 STARLINK-5421,1 54799U 22175AT  23336.77449881  .00001676  00000-0  12333-3 0  9991,2 54799  53.2175 135.7393 0001574  66.9307 293.1851 15.08847825 55285,6917.856,95.437,540.81,538.633,0.0
54799.0,STARLINK-5421,PAYLOAD,2023-12-03 20:01:28,15.08832948,0.000161,53.2181,130.9818,68.7724,291.344,-7.9523e-05,-1.553e-05,0.0,0 STARLINK-5421,1 54799U 22175AT  23337.83435678 -.00001553  00000-0 -79523-4 0  9999,2 54799  53.2181 130.9818 0001610  68.7724 291.3440 15.08832948 53287,6917.902,95.438,540.881,538.653,0.0
54799.0,STARLINK-5421,PAYLOAD,2023-12-04 13:30:42,15.0883639,0.0001401,53.2167,127.7138,66.4233,293.6906,-2.6432e-05,-7.09e-06,0.0,0 STARLINK-5421,1 54799U 22175AT  23338.56299550 -.00000709  00000-0 -26432-4 0  9990,2 54799  53.2167 127.7138 0001401  66.4233 293.6906 15.08836390 55557,6917.891,95.438,540.726,538.787,0.0
54799.0,STARLINK-5421,PAYLOAD,2023-12-05 13:21:29,15.08839898,0.0001335,53.2177,123.2518,87.6695,272.445,0.00018332,2.631e-05,0.0,0 STARLINK-5421,1 54799U 22175AT  23339.55658841  .00002631  00000-0  18332-3 0  9995,2 54799  53.2177 123.2518 0001335  87.6695 272.4450 15.08839898 55706,6917.881,95.438,540.669,538.822,0.0
54799.0,STARLINK-5421,PAYLOAD,2023-12-05 19:43:01,15.08845485,0.0001276,53.2166,122.0604,82.8451,277.2687,0.00023409,3.44e-05,0.0,0 STARLINK-5421,1 54799U 22175AT  23339.82154355  .00003440  00000-0  23409-3 0  9996,2 54799  53.2166 122.0604 0001276  82.8451 277.2687 15.08845485 53586,6917.864,95.437,540.611,538.846,0.0
54799.0,STARLINK-5421,PAYLOAD,2023-12-06 10:01:30,15.08842938,0.0001929,53.2151,119.378,119.4923,240.6262,3.0078e-05,1.91e-06,0.0,0 STARLINK-5421,1 54799U 22175AT  23340.41771021  .00000191  00000-0  30078-4 0  9999,2 54799  53.2151 119.3780 0001929 119.4923 240.6262 15.08842938 53673,6917.871,95.437,541.071,538.402,0.0
54799.0,STARLINK-5421,PAYLOAD,2023-12-06 13:12:16,15.08843871,0.0001958,53.2154,118.7827,123.6429,236.475,2.8726e-05,1.69e-06,0.0,0 STARLINK-5421,1 54799U 22175AT  23340.55018859  .00000169  00000-0  28726-4 0  9999,2 54799  53.2154 118.7827 0001958 123.6429 236.4750 15.08843871 55855,6917.869,95.437,541.088,538.379,0.0
54799.0,STARLINK-5421,PAYLOAD,2023-12-07 13:03:03,15.08864084,0.000116,53.2163,114.3277,102.3173,257.795,-0.00034418,-5.765e-05,0.0,0 STARLINK-5421,1 54799U 22175AT  23341.54379040 -.00005765  00000-0 -34418-3 0  9994,2 54799  53.2163 114.3277 0001160 102.3173 257.7950 15.08864084 56006,6917.807,95.436,540.474,538.869,0.0
54799.0,STARLINK-5421,PAYLOAD,2023-12-08 12:53:50,15.08836737,0.0001282,53.2166,109.8674,100.9205,259.1931,3.2422e-05,2.28e-06,0.0,0 STARLINK-5421,1 54799U 22175AT  23342.53739441  .00000228  00000-0  32422-4 0  9990,2 54799  53.2166 109.8674 0001282 100.9205 259.1931 15.08836737 56159,6917.89,95.438,540.642,538.868,0.0
54799.0,STARLINK-5421,PAYLOAD,2023-12-08 17:40:00,15.08838207,0.0001296,53.2166,108.9753,101.5521,258.5616,4.2183e-05,3.83e-06,0.0,0 STARLINK-5421,1 54799U 22175AT  23342.73611345  .00000383  00000-0  42183-4 0  9991,2 54799  53.2166 108.9753 0001296 101.5521 258.5616 15.08838207 54021,6917.886,95.438,540.647,538.854,0.0
54799.0,STARLINK-5421,PAYLOAD,2023-12-09 12:44:38,15.08834094,0.0001334,53.2161,105.4078,105.6014,254.5126,2.7874e-05,1.56e-06,0.0,0 STARLINK-5421,1 54799U 22175AT  23343.53099855  .00000156  00000-0  27874-4 0  9994,2 54799  53.2161 105.4078 0001334 105.6014 254.5126 15.08834094 56308,6917.898,95.438,540.686,538.841,0.0
54799.0,STARLINK-5421,PAYLOAD,2023-12-10 14:10:48,15.08839957,0.0001498,53.2175,100.6501,110.4273,249.688,7.3893e-05,8.88e-06,0.0,0 STARLINK-5421,1 54799U 22175AT  23344.59083487  .00000888  00000-0  73893-4 0  9999,2 54799  53.2175 100.6501 0001498 110.4273 249.6880 15.08839957 56465,6917.881,95.438,540.782,538.709,0.0
54799.0,STARLINK-5421,PAYLOAD,2023-12-11 14:01:34,15.08843299,0.000134,53.2171,96.1899,94.8273,265.2873,7.3787e-05,8.87e-06,0.0,0 STARLINK-5421,1 54799U 22175AT  23345.58443280  .00000887  00000-0  73787-4 0  9991,2 54799  53.2171  96.1899 0001340  94.8273 265.2873 15.08843299 56618,6917.87,95.437,540.662,538.808,0.0
54799.0,STARLINK-5421,PAYLOAD,2023-12-12 10:41:36,15.08840071,0.0001388,53.2173,92.3241,92.6014,267.5137,-4.1782e-06,-3.54e-06,0.0,0 STARLINK-5421,1 54799U 22175AT  23346.44555697 -.00000354  00000-0 -41782-5 0  9995,2 54799  53.2173  92.3241 0001388  92.6014 267.5137 15.08840071 54587,6917.88,95.438,540.705,538.785,0.0
54799.0,STARLINK-5421,PAYLOAD,2023-12-12 13:52:22,15.08840588,0.0001323,53.2168,91.7292,84.94,275.1743,-1.129e-06,-3.06e-06,0.0,0 STARLINK-5421,1 54799U 22175AT  23346.57803659 -.00000306  00000-0 -11290-5 0  9991,2 54799  53.2168  91.7292 0001323  84.9400 275.1743 15.08840588 56765,6917.879,95.438,540.659,538.828,0.0
54799.0,STARLINK-5421,PAYLOAD,2023-12-13 12:07:46,15.08840266,0.0001317,53.2169,87.5658,91.3145,268.7998,3.3954e-05,2.53e-06,0.0,0 STARLINK-5421,1 54799U 22175AT  23347.50539407  .00000253  00000-0  33954-4 0  9991,2 54799  53.2169  87.5658 0001317  91.3145 268.7998 15.08840266 54745,6917.88,95.438,540.656,538.833,0.0
54799.0,STARLINK-5421,PAYLOAD,2023-12-14 13:33:56,15.08841253,0.0001316,53.2173,82.8075,87.8753,272.239,5.2462e-05,5.47e-06,0.0,0 STARLINK-5421,1 54799U 22175AT  23348.56523393  .00000547  00000-0  52462-4 0  9996,2 54799  53.2173  82.8075 0001316  87.8753 272.2390 15.08841253 57066,6917.877,95.437,540.652,538.831,0.0
